{
    "links": {
        "self": "http://www.neowsapp.com/rest/v1/neo/3695837?api_key=iIulBulltgU6a56xZRHN4H3l9WmuAYTsLGpBGhQ2"
    },
    "id": "3695837",
    "neo_reference_id": "3695837",
    "name": "(2014 VP)",
    "designation": "2014 VP",
    "nasa_jpl_url": "http://ssd.jpl.nasa.gov/sbdb.cgi?sstr=3695837",
    "absolute_magnitude_h": 22.8,
    "estimated_diameter": {
        "kilometers": {
            "estimated_diameter_min": 0.0732073989,
            "estimated_diameter_max": 0.1636967205
        },
        "meters": {
            "estimated_diameter_min": 73.2073989347,
            "estimated_diameter_max": 163.696720474
        },
        "miles": {
            "estimated_diameter_min": 0.0454889547,
            "estimated_diameter_max": 0.1017163949
        },
        "feet": {
            "estimated_diameter_min": 240.181762721,
            "estimated_diameter_max": 537.0627483999
        }
    },
    "is_potentially_hazardous_asteroid": false,
    "close_approach_data": [
        {
            "close_approach_date": "1914-10-23",
            "close_approach_date_full": "1914-Oct-23 18:41",
            "epoch_date_close_approach": -1741670340000,
            "relative_velocity": {
                "kilometers_per_second": "21.3310665896",
                "kilometers_per_hour": "76791.8397225866",
                "miles_per_hour": "47715.4628542928"
            },
            "miss_distance": {
                "astronomical": "0.4721248996",
                "lunar": "183.6565859444",
                "kilometers": "70628879.354123852",
                "miles": "43886750.5749870776"
            },
            "orbiting_body": "Earth"
        },
        {
            "close_approach_date": "2014-11-16",
            "close_approach_date_full": "2014-Nov-16 21:13",
            "epoch_date_close_approach": 1416172380000,
            "relative_velocity": {
                "kilometers_per_second": "11.6784624649",
                "kilometers_per_hour": "42042.4648735198",
                "miles_per_hour": "26123.5526876601"
            },
            "miss_distance": {
                "astronomical": "0.0827440001",
                "lunar": "32.1874160389",
                "kilometers": "12378326.170239787",
                "miles": "7691535.2209595806"
            },
            "orbiting_body": "Earth"
        }
    ],
    "orbital_data": {
        "orbit_id": "9",
        "orbit_determination_date": "2017-04-06 08:37:35",
        "first_observation_date": "2014-11-04",
        "last_observation_date": "2014-11-21",
        "data_arc_in_days": 17,
        "observations_used": 60,
        "orbit_uncertainty": "7",
        "minimum_orbit_intersection": ".0533255",
        "jupiter_tisserand_invariant": "4.019",
        "epoch_osculation": "2459000.5",
        "eccentricity": ".4231698993029061",
        "semi_major_axis": "1.727787767754441",
        "inclination": "15.33187071198716",
        "ascending_node_longitude": "233.8011005853037",
        "orbital_period": "829.5336719868695",
        "perihelion_distance": ".9966399920570012",
        "perihelion_argument": "214.0912837918714",
        "aphelion_distance": "2.45893554345188",
        "perihelion_time": "2458663.450939920833",
        "mean_anomaly": "146.2721354491574",
        "mean_motion": ".4339787668145415",
        "equinox": "J2000",
        "orbit_class": {
            "orbit_class_type": "APO",
            "orbit_class_description": "Near-Earth asteroid orbits which cross the Earth’s orbit similar to that of 1862 Apollo",
            "orbit_class_range": "a (semi-major axis) > 1.0 AU; q (perihelion) < 1.017 AU"
        }
    },
    "is_sentry_object": false
}